#aV2021  5  4  0  0  0.00000000     288 DD+AD WGS84 FIT  NGA
## 2156 172800.00000000   300.00000000 59338 0.0000000000000
+   31     1  2  3  4  5  6  7  8  9 10 12 13 14 15 16 17 18
+         19 20 21 22 23 24 25 26 27 28 29 30 31 32  0  0  0
+          0  0  0  0  0  0  0  0  0  0  0  0  0  0  0  0  0
+          0  0  0  0  0  0  0  0  0  0  0  0  0  0  0  0  0
+          0  0  0  0  0  0  0  0  0  0  0  0  0  0  0  0  0
++         2  2  2  2  2  2  2  2  2  2  2  2  2  2  2  2  2
++         2  2  2  2  2  2  2  2  2  2  2  2  2  2  0  0  0
++         0  0  0  0  0  0  0  0  0  0  0  0  0  0  0  0  0
++         0  0  0  0  0  0  0  0  0  0  0  0  0  0  0  0  0
++         0  0  0  0  0  0  0  0  0  0  0  0  0  0  0  0  0
%c cc cc ccc ccc cccc cccc cccc cccc ccccc ccccc ccccc ccccc
%c cc cc ccc ccc cccc cccc cccc cccc ccccc ccccc ccccc ccccc
%f  0.0000000  0.000000000  0.00000000000  0.000000000000000
%f  0.0000000  0.000000000  0.00000000000  0.000000000000000
%i    0    0    0    0      0      0      0      0         0
%i    0    0    0    0      0      0      0      0         0
/*      NGA, ST. LOUIS,MO.                                  
/*   EPHEMERIS COMPUTED FROM 2 DAYS OF DATA                 
/*   EPOCHA v6 SMOOTHER                                     
/*   G2139 IERS2010 SATIGS SATAPC                           
*  2021  5  4 14 25  0.00000000
P  1   8680.193896 -19057.823512 -16378.664939    698.634736                    
V  1  17740.332718 -10205.370014  21952.049248     -0.106364                    
P  2 -22058.353987  13974.753533  -4332.200928   -601.370689                    
V  2   3180.566719  -6100.678526 -31141.081693     -0.032664                    
P  3  -1360.378486 -16496.310810 -20877.018222   -154.766235                    
V  3  24074.054454  10544.836509  -9830.559110     -0.104235                    
P  4   1565.350456 -26165.884593  -4085.018827   -194.863103                    
V  4   3090.895517   5059.772346 -31215.227409     -0.016425                    
P  5 -15305.263536   8670.197566  19804.271275    -40.957840                    
V  5 -22946.828296 -11042.465771 -12619.970160     -0.011053                    
P  6 -21751.068435   2970.448881 -14936.212536     12.622278                    
V  6  14762.795594 -12055.534449 -23741.907838      0.034272                    
P  7  -5923.703242 -14629.006834  21664.662701    141.285652                    
V  7  22459.114328 -14596.278457  -4268.263380      0.109919                    
P  8   6658.247390 -22113.283946  12831.115144    -19.938474                    
V  8   3965.978787  16096.854098  25963.683833     -0.014713                    
P  9  -7041.648934 -24776.563726   6375.359859   -343.351834                    
V  9   2125.080636  -8439.022120 -30195.440429     -0.024674                    
P 10  23941.174770  11816.237647    811.666567   -115.179394                    
V 10  -1789.060987   1743.814326  31732.250304     -0.076788                    
P 12  -2280.467852  15599.721755 -21651.245352    -36.538544                    
V 12 -23592.836105 -12779.393587  -6661.370918     -0.051300                    
P 13 -12895.458222  14820.216800  17680.334555    127.860539                    
V 13   -532.240673 -22796.841767  18711.154206      0.047051                    
P 14 -23132.318348 -13038.508452   1071.198492     89.976332                    
V 14   2569.893940  -1933.678098  31619.384132     -0.043311                    
P 15  -4437.271967  22967.761991  11878.390464   -151.715806                    
V 15  -6583.449626 -14841.384786  25821.423377      0.026195                    
P 16  18991.646600  -3232.936161  18238.122464   -319.867920                    
V 16  19659.766270  12855.224504 -17505.262793     -0.059865                    
P 17 -12709.361863 -13522.655375 -18574.406325    436.967923                    
V 17    685.278083 -24450.387640  16948.278367      0.061536                    
P 18   9000.436442  12083.885730  21864.426821    351.063427                    
V 18 -23115.381521  15372.254385    957.028908     -0.006181                    
P 19 -14670.837936  -4158.773748 -22043.494962     -4.396470                    
V 19    846.996830 -27220.550663   4524.281955      0.050001                    
P 20     42.701758  16165.490526  21060.931516    522.524540                    
V 20 -25868.579302  -7349.027416   5397.706273     -0.003726                    
P 21  14982.384293 -19660.058668  -8325.464384    115.746205                    
V 21  11144.744610  -4832.960306  29485.311588      0.027243                    
P 22   8852.331269 -13314.690189 -20993.817771   -622.534332                    
V 22  25444.809518   9735.910662   4699.928682      0.092084                    
P 23  17814.886329  16276.935745  11130.368363    109.313519                    
V 23 -13879.084125  -3570.886987  27340.006553     -0.027931                    
P 24 -12030.944915  20574.030803 -11545.825370     56.056688                    
V 24 -13351.151700   6513.697255  26467.947336      0.257565                    
P 25  11581.487860  17944.485037 -16224.059934    130.899438                    
V 25 -18812.706466  -7003.001680 -21260.091233      0.071566                    
P 26  24264.031306   1533.617888  10949.814789     80.889361                    
V 26  11786.948002   7918.456237 -26820.584353      0.050534                    
P 27  12480.499141 -11990.972335  19860.386672   -124.233764                    
V 27   3333.901857  25486.389603  13535.591848     -0.066380                    
P 28 -23561.904807 -11472.788762  -3107.687258    576.657167                    
V 28  -2654.287902  -4616.716105  31823.835192     -0.060171                    
P 29   4731.551502  25217.534893   6723.841903   -341.279241                    
V 29  -1935.581025   8613.751663 -30761.753170     -0.065505                    
P 30 -17808.146283  -5141.842718  19161.906234   -421.624822                    
V 30  19437.244427 -14519.463247  13976.185470     -0.050578                    
P 31  23268.327896  -4816.286797 -12416.160554   -115.358271                    
V 31 -11786.390412  10233.662597 -25778.276690     -0.022063                    
P 32  14654.432536  10680.235828 -19353.399548     21.706765                    
V 32    978.133651  24782.647724  14166.355774     -0.004474                    
EOF
